OBJECT_NAME,OBJECT_ID,EPOCH,MEAN_MOTION,ECCENTRICITY,INCLINATION,RA_OF_ASC_NODE,ARG_OF_PERICENTER,MEAN_ANOMALY,EPHEMERIS_TYPE,CLASSIFICATION_TYPE,NORAD_CAT_ID,ELEMENT_SET_NO,REV_AT_EPOCH,BSTAR,MEAN_MOTION_DOT,MEAN_MOTION_DDOT
STARLINK-37963,2026-147F,2026-07-05T12:00:02.999808,15.83322633,.00016011,97.2832,222.3328,68.8805,41.0330,0,U,69709,999,218,-.10828191E-1,-.2020204E-1,0
STARLINK-37969,2026-147G,2026-07-05T12:00:02.999808,15.83591166,.00014689,97.2834,222.3325,87.6241,25.9735,0,U,69710,999,233,-.10745104E-1,-.2028917E-1,0
STARLINK-37956,2026-147H,2026-07-05T12:00:02.999808,15.83935268,.00016634,97.2829,222.3342,77.9181,39.1576,0,U,69711,999,218,-.10662642E-1,-.2044458E-1,0
STARLINK-38043,2026-147J,2026-07-05T14:00:03.000384,15.83858905,.00015318,97.2832,222.4246,102.9521,132.5407,0,U,69712,999,220,-.10879532E-1,-.2073464E-1,0
STARLINK-38020,2026-147K,2026-07-05T14:00:03.000384,15.84121544,.00014993,97.2830,222.4260,109.2495,129.8365,0,U,69713,999,220,-.10660067E-1,-.205958E-1,0
STARLINK-38059,2026-147L,2026-07-05T12:00:02.999808,15.84758149,.00013807,97.2830,222.3387,85.6903,41.8208,0,U,69714,999,218,-.10110033E-1,-.2020148E-1,0
STARLINK-38061,2026-147M,2026-07-05T14:00:03.000384,15.84671591,.00014038,97.2834,222.4288,112.4355,133.5527,0,U,69715,999,229,-.10220457E-1,-.2031869E-1,0
STARLINK-38060,2026-147N,2026-07-05T12:00:02.999808,15.85278709,.0001371,97.2832,222.3420,95.5400,38.6099,0,U,69716,999,227,-.96232888E-2,-.1978317E-1,0
STARLINK-38040,2026-147P,2026-07-05T12:00:02.999808,15.85560478,.00015709,97.2834,222.3433,92.0818,45.2470,0,U,69717,999,227,-.95093604E-2,-.1981585E-1,0
STARLINK-37989,2026-147Q,2026-07-05T12:00:02.999808,15.85791498,.00017151,97.2833,222.3445,79.2213,61.3802,0,U,69718,999,227,-.92961424E-2,-.1962171E-1,0
STARLINK-38039,2026-147R,2026-07-05T12:00:02.999808,15.86035522,.00014718,97.2833,222.3458,97.3086,46.4346,0,U,69719,999,227,-.90778996E-2,-.1941766E-1,0
STARLINK-38003,2026-147S,2026-07-05T12:00:02.999808,15.86248865,.00015721,97.2833,222.3470,90.1775,56.8546,0,U,69720,999,227,-.89598846E-2,-.1937392E-1,0
STARLINK-38014,2026-147T,2026-07-05T14:00:03.000384,15.86169977,.00013817,97.2837,222.4372,106.8532,158.7157,0,U,69721,999,229,-.90888953E-2,-.1954875E-1,0
STARLINK-37915,2026-147U,2026-07-05T12:00:02.999808,15.86708288,.00014427,97.2837,222.3498,94.5147,58.6867,0,U,69722,999,227,-.86370778E-2,-.187095E-1,0
STARLINK-38007,2026-147V,2026-07-05T14:00:03.000384,15.84443084,.00014496,97.2838,222.4359,109.1535,154.5901,0,U,69723,999,229,-.12176444E-1,-.2393779E-1,0
STARLINK-38008,2026-147W,2026-07-05T14:00:03.000384,15.86860081,.0001361,97.2838,222.4414,102.3242,172.4277,0,U,69724,999,229,-.85765375E-2,-.1871586E-1,0
STARLINK-38021,2026-147X,2026-07-05T12:00:02.999808,15.87376409,.00013593,97.2837,222.3537,97.8829,64.3371,0,U,69725,999,227,-.83384525E-2,-.186752E-1,0
STARLINK-38015,2026-147Y,2026-07-05T12:00:02.999808,15.87562934,.00013833,97.2840,222.3552,93.3790,71.7414,0,U,69726,999,227,-.79374525E-2,-.1804917E-1,0
STARLINK-38010,2026-147Z,2026-07-05T12:00:02.999808,15.87770094,.00013201,97.2840,222.3565,96.2689,71.7338,0,U,69727,999,227,-.7771682E-2,-.1788232E-1,0
SXM-11,2026-148A,2026-07-02T18:38:30.146784,2.87966624,.6817708,26.8166,144.0522,178.2879,186.7543,0,U,69728,999,14,0,-.235E-5,0
HAIYANG-2E,2026-149A,2026-07-04T06:42:18.852768,13.80975314,.00075972,99.3513,192.3452,219.2566,140.8036,0,U,69737,999,32,-.6119502E+0,-.616275E-2,0
