STARLINK-37963          
1 69709U 26147F   26186.50003472 -.02020204  00000+0 -10828-1 0  9996
2 69709  97.2832 222.3328 0001601  68.8805  41.0330 15.83322633  2187
STARLINK-37969          
1 69710U 26147G   26186.50003472 -.02028917  00000+0 -10745-1 0  9995
2 69710  97.2834 222.3325 0001468  87.6241  25.9735 15.83591166  2338
STARLINK-37956          
1 69711U 26147H   26186.50003472 -.02044458  00000+0 -10663-1 0  9993
2 69711  97.2829 222.3342 0001663  77.9181  39.1576 15.83935268  2182
STARLINK-38043          
1 69712U 26147J   26186.58336806 -.02073464  00000+0 -10880-1 0  9992
2 69712  97.2832 222.4246 0001531 102.9521 132.5407 15.83858905  2208
STARLINK-38020          
1 69713U 26147K   26186.58336806 -.02059580  00000+0 -10660-1 0  9992
2 69713  97.2830 222.4260 0001499 109.2495 129.8365 15.84121544  2201
STARLINK-38059          
1 69714U 26147L   26186.50003472 -.02020148  00000+0 -10110-1 0  9993
2 69714  97.2830 222.3387 0001380  85.6903  41.8208 15.84758149  2184
STARLINK-38061          
1 69715U 26147M   26186.58336806 -.02031869  00000+0 -10220-1 0  9996
2 69715  97.2834 222.4288 0001403 112.4355 133.5527 15.84671591  2296
STARLINK-38060          
1 69716U 26147N   26186.50003472 -.01978317  00000+0 -96233-2 0  9995
2 69716  97.2832 222.3420 0001371  95.5400  38.6099 15.85278709  2270
STARLINK-38040          
1 69717U 26147P   26186.50003472 -.01981585  00000+0 -95094-2 0  9991
2 69717  97.2834 222.3433 0001570  92.0818  45.2470 15.85560478  2277
STARLINK-37989          
1 69718U 26147Q   26186.50003472 -.01962171  00000+0 -92961-2 0  9992
2 69718  97.2833 222.3445 0001715  79.2213  61.3802 15.85791498  2273
STARLINK-38039          
1 69719U 26147R   26186.50003472 -.01941766  00000+0 -90779-2 0  9995
2 69719  97.2833 222.3458 0001471  97.3086  46.4346 15.86035522  2273
STARLINK-38003          
1 69720U 26147S   26186.50003472 -.01937392  00000+0 -89599-2 0  9995
2 69720  97.2833 222.3470 0001572  90.1775  56.8546 15.86248865  2270
STARLINK-38014          
1 69721U 26147T   26186.58336806 -.01954875  00000+0 -90889-2 0  9993
2 69721  97.2837 222.4372 0001381 106.8532 158.7157 15.86169977  2299
STARLINK-37915          
1 69722U 26147U   26186.50003472 -.01870950  00000+0 -86371-2 0  9998
2 69722  97.2837 222.3498 0001442  94.5147  58.6867 15.86708288  2279
STARLINK-38007          
1 69723U 26147V   26186.58336806 -.02393779  00000+0 -12176-1 0  9998
2 69723  97.2838 222.4359 0001449 109.1535 154.5901 15.84443084  2294
STARLINK-38008          
1 69724U 26147W   26186.58336806 -.01871586  00000+0 -85765-2 0  9990
2 69724  97.2838 222.4414 0001361 102.3242 172.4277 15.86860081  2297
STARLINK-38021          
1 69725U 26147X   26186.50003472 -.01867520  00000+0 -83385-2 0  9992
2 69725  97.2837 222.3537 0001359  97.8829  64.3371 15.87376409  2277
STARLINK-38015          
1 69726U 26147Y   26186.50003472 -.01804917  00000+0 -79375-2 0  9998
2 69726  97.2840 222.3552 0001383  93.3790  71.7414 15.87562934  2274
STARLINK-38010          
1 69727U 26147Z   26186.50003472 -.01788232  00000+0 -77717-2 0  9998
2 69727  97.2840 222.3565 0001320  96.2689  71.7338 15.87770094  2272
SXM-11                  
1 69728U 26148A   26183.77673781 -.00000235  00000+0  00000+0 0  9998
2 69728  26.8166 144.0522 6817708 178.2879 186.7543  2.87966624   149
HAIYANG-2E              
1 69737U 26149A   26185.27938487 -.00616275  00000+0 -61195+0 0  9993
2 69737  99.3513 192.3452 0007597 219.2566 140.8036 13.80975314   327
